NORAD_CAT_ID,OBJECT_NAME,OBJECT_TYPE,EPOCH,MEAN_MOTION,ECCENTRICITY,INCLINATION,RA_OF_ASC_NODE,ARG_OF_PERICENTER,MEAN_ANOMALY,BSTAR,MEAN_MOTION_DOT,MEAN_MOTION_DDOT,TLE_LINE0,TLE_LINE1,TLE_LINE2,SEMIMAJOR_AXIS,PERIOD,APOGEE,PERIGEE,DECAYED
55277.0,STARLINK-5299,PAYLOAD,2024-07-29 09:22:55,14.98329527,0.0002732,69.9998,87.7992,271.7581,88.3265,7.7386e-05,8.3e-06,0.0,0 STARLINK-5299,1 55277U 23010J   24211.39091754  .00000830  00000-0  77386-4 0  9996,2 55277  69.9998  87.7992 0002732 271.7581  88.3265 14.98329527 84661,6950.194,96.107,573.958,570.161,0.0
55277.0,STARLINK-5299,PAYLOAD,2024-07-29 22:11:59,14.98337337,0.000294,69.9992,86.4521,269.5678,90.5144,4.9751e-05,5.01e-06,0.0,0 STARLINK-5299,1 55277U 23010J   24211.92499298  .00000501  00000-0  49751-4 0  9990,2 55277  69.9992  86.4521 0002940 269.5678  90.5144 14.98337337 84740,6950.17,96.107,574.079,569.992,0.0
55277.0,STARLINK-5299,PAYLOAD,2024-07-30 01:24:15,14.98332956,0.0003033,69.9991,86.1155,269.5504,90.5308,0.00011497,1.279e-05,0.0,0 STARLINK-5299,1 55277U 23010J   24212.05851366  .00001279  00000-0  11497-3 0  9991,2 55277  69.9991  86.1155 0003033 269.5504  90.5308 14.98332956 84453,6950.184,96.107,574.157,569.941,0.0
55277.0,STARLINK-5299,PAYLOAD,2024-07-30 09:24:55,14.98332169,0.0003023,69.9992,85.2736,269.4704,90.6108,0.00010381,1.146e-05,0.0,0 STARLINK-5299,1 55277U 23010J   24212.39231414  .00001146  00000-0  10381-3 0  9998,2 55277  69.9992  85.2736 0003023 269.4704  90.6108 14.98332169 84814,6950.186,96.107,574.152,569.95,0.0
55277.0,STARLINK-5299,PAYLOAD,2024-07-30 22:14:00,14.98337935,0.0003133,69.9989,83.9282,271.3918,88.6882,0.00011321,1.258e-05,0.0,0 STARLINK-5299,1 55277U 23010J   24212.92638950  .00001258  00000-0  11321-3 0  9992,2 55277  69.9989  83.9282 0003133 271.3918  88.6882 14.98337935 84892,6950.168,96.106,574.211,569.856,0.0
55277.0,STARLINK-5299,PAYLOAD,2024-07-31 01:26:16,14.98339404,0.000309,69.999,83.5915,271.0785,89.002,0.00013571,1.527e-05,0.0,0 STARLINK-5299,1 55277U 23010J   24213.05990758  .00001527  00000-0  13571-3 0  9992,2 55277  69.9990  83.5915 0003090 271.0785  89.0020 14.98339404 84605,6950.164,96.106,574.176,569.881,0.0
55277.0,STARLINK-5299,PAYLOAD,2024-07-31 14:15:21,14.98327451,0.0002926,70.0001,82.2447,272.2354,87.847,-1.4618e-05,-2.67e-06,0.0,0 STARLINK-5299,1 55277U 23010J   24213.59399826 -.00000267  00000-0 -14618-4 0  9996,2 55277  70.0001  82.2447 0002926 272.2354  87.8470 14.98327451 84995,6950.201,96.107,574.099,570.032,0.0
55277.0,STARLINK-5299,PAYLOAD,2024-07-31 20:39:53,14.98326681,0.0002863,70.0003,81.5721,263.0474,97.0359,-9.2789e-06,-2.04e-06,0.0,0 STARLINK-5299,1 55277U 23010J   24213.86103826 -.00000204  00000-0 -92789-5 0  9996,2 55277  70.0003  81.5721 0002863 263.0474  97.0359 14.98326681 84729,6950.203,96.107,574.058,570.078,0.0
55277.0,STARLINK-5299,PAYLOAD,2024-07-31 22:16:01,14.98329828,0.0002803,70.0002,81.4033,263.9739,96.1101,-8.6813e-05,-1.129e-05,0.0,0 STARLINK-5299,1 55277U 23010J   24213.92779864 -.00001129  00000-0 -86813-4 0  9991,2 55277  70.0002  81.4033 0002803 263.9739  96.1101 14.98329828 85047,6950.193,96.107,574.007,570.11,0.0
55277.0,STARLINK-5299,PAYLOAD,2024-08-01 07:52:49,14.98333935,0.000285,70.0001,80.3938,264.261,95.8224,-3.1003e-06,-1.3e-06,0.0,0 STARLINK-5299,1 55277U 23010J   24214.32835362 -.00000130  00000-0 -31003-5 0  9995,2 55277  70.0001  80.3938 0002850 264.2610  95.8224 14.98333935 84799,6950.181,96.107,574.027,570.065,0.0
55277.0,STARLINK-5299,PAYLOAD,2024-08-01 22:18:01,14.98341525,0.0003171,69.9989,78.8776,269.7786,90.3009,9.7359e-05,1.069e-05,0.0,0 STARLINK-5299,1 55277U 23010J   24214.92918415  .00001069  00000-0  97359-4 0  9997,2 55277  69.9989  78.8776 0003171 269.7786  90.3009 14.98341525 85194,6950.157,96.106,574.226,569.818,0.0
55277.0,STARLINK-5299,PAYLOAD,2024-08-02 01:30:17,14.9834569,0.0003129,69.9992,78.5413,271.5104,88.5697,0.00014671,1.659e-05,0.0,0 STARLINK-5299,1 55277U 23010J   24215.06270011  .00001659  00000-0  14671-3 0  9996,2 55277  69.9992  78.5413 0003129 271.5104  88.5697 14.98345690 84908,6950.144,96.106,574.184,569.835,0.0
55277.0,STARLINK-5299,PAYLOAD,2024-08-02 14:19:22,14.98324543,0.0002747,70.0008,77.197,258.8155,101.2695,0.00012502,1.399e-05,0.0,0 STARLINK-5299,1 55277U 23010J   24215.59679384  .00001399  00000-0  12502-3 0  9992,2 55277  70.0008  77.1970 0002747 258.8155 101.2695 14.98324543 85299,6950.21,96.107,573.984,570.166,0.0
55277.0,STARLINK-5299,PAYLOAD,2024-08-02 20:43:55,14.98322867,0.0003367,69.9992,76.522,273.6501,86.4273,6.4708e-05,6.79e-06,0.0,0 STARLINK-5299,1 55277U 23010J   24215.86383759  .00000679  00000-0  64708-4 0  9996,2 55277  69.9992  76.5220 0003367 273.6501  86.4273 14.98322867 85022,6950.215,96.107,574.42,569.74,0.0
55277.0,STARLINK-5299,PAYLOAD,2024-08-02 22:20:03,14.98323547,0.0003082,69.9994,76.3533,268.3447,91.7359,5.9673e-05,6.19e-06,0.0,0 STARLINK-5299,1 55277U 23010J   24215.93059737  .00000619  00000-0  59673-4 0  9999,2 55277  69.9994  76.3533 0003082 268.3447  91.7359 14.98323547 85348,6950.213,96.107,574.22,569.936,0.0
55277.0,STARLINK-5299,PAYLOAD,2024-08-03 07:56:51,14.98331963,0.0003215,69.999,75.3425,270.4712,89.6079,5.3293e-05,5.43e-06,0.0,0 STARLINK-5299,1 55277U 23010J   24216.33115271  .00000543  00000-0  53293-4 0  9998,2 55277  69.9990  75.3425 0003215 270.4712  89.6079 14.98331963 85098,6950.187,96.107,574.286,569.817,0.0
55277.0,STARLINK-5299,PAYLOAD,2024-08-03 20:45:55,14.98341344,0.0003091,69.9992,73.9962,266.7856,93.2949,7.5775e-05,8.11e-06,0.0,0 STARLINK-5299,1 55277U 23010J   24216.86522584  .00000811  00000-0  75775-4 0  9992,2 55277  69.9992  73.9962 0003091 266.7856  93.2949 14.98341344 85179,6950.158,96.106,574.171,569.875,0.0
55277.0,STARLINK-5299,PAYLOAD,2024-08-03 22:22:03,14.98341969,0.0003084,69.9992,73.8279,266.8269,93.2537,8.5463e-05,9.27e-06,0.0,0 STARLINK-5299,1 55277U 23010J   24216.93198508  .00000927  00000-0  85463-4 0  9998,2 55277  69.9992  73.8279 0003084 266.8269  93.2537 14.98341969 85491,6950.156,96.106,574.164,569.877,0.0
55277.0,STARLINK-5299,PAYLOAD,2024-08-04 14:23:24,14.98330365,0.0002697,69.9996,72.145,272.356,87.729,0.00019654,2.253e-05,0.0,0 STARLINK-5299,1 55277U 23010J   24217.59959180  .00002253  00000-0  19654-3 0  9994,2 55277  69.9996  72.1450 0002697 272.3560  87.7290 14.98330365 85596,6950.192,96.107,573.931,570.182,0.0
55277.0,STARLINK-5299,PAYLOAD,2024-08-04 20:47:56,14.98331475,0.0003071,69.9989,71.4709,269.4102,90.6705,0.00019113,2.188e-05,0.0,0 STARLINK-5299,1 55277U 23010J   24217.86663132  .00002188  00000-0  19113-3 0  9990,2 55277  69.9989  71.4709 0003071 269.4102  90.6705 14.98331475 85321,6950.188,96.107,574.188,569.919,0.0
55277.0,STARLINK-5299,PAYLOAD,2024-08-04 22:24:05,14.98332011,0.0002965,70.0002,71.3023,268.7281,91.3539,0.00019286,2.209e-05,0.0,0 STARLINK-5299,1 55277U 23010J   24217.93339182  .00002209  00000-0  19286-3 0  9998,2 55277  70.0002  71.3023 0002965 268.7281  91.3539 14.98332011 85644,6950.187,96.107,574.112,569.991,0.0
55277.0,STARLINK-5299,PAYLOAD,2024-08-05 20:49:57,14.98334726,0.0003004,70.0001,68.9463,270.911,89.1705,8.1256e-05,8.77e-06,0.0,0 STARLINK-5299,1 55277U 23010J   24218.86802979  .00000877  00000-0  81256-4 0  9996,2 55277  70.0001  68.9463 0003004 270.9110  89.1705 14.98334726 85470,6950.178,96.107,574.131,569.955,0.0
55277.0,STARLINK-5299,PAYLOAD,2024-08-05 22:26:05,14.98334501,0.0003009,70.0001,68.7783,271.2185,88.8629,7.6059e-05,8.15e-06,0.0,0 STARLINK-5299,1 55277U 23010J   24218.93478993  .00000815  00000-0  76059-4 0  9996,2 55277  70.0001  68.7783 0003009 271.2185  88.8629 14.98334501 85791,6950.179,96.107,574.135,569.953,0.0
55277.0,STARLINK-5299,PAYLOAD,2024-08-06 14:27:26,14.9832633,0.0002986,70.0001,67.0946,271.1942,88.8875,0.00029788,3.463e-05,0.0,0 STARLINK-5299,1 55277U 23010J   24219.60239437  .00003463  00000-0  29788-3 0  9997,2 55277  70.0001  67.0946 0002986 271.1942  88.8875 14.98326330 85892,6950.204,96.107,574.145,569.994,0.0
55277.0,STARLINK-5299,PAYLOAD,2024-08-06 20:51:58,14.9833108,0.0002878,70.0004,66.4211,269.7307,90.3523,0.00015272,1.73e-05,0.0,0 STARLINK-5299,1 55277U 23010J   24219.86943149  .00001730  00000-0  15272-3 0  9995,2 55277  70.0004  66.4211 0002878 269.7307  90.3523 14.98331080 85628,6950.19,96.107,574.055,570.054,0.0
55277.0,STARLINK-5299,PAYLOAD,2024-08-07 12:53:19,14.98335253,0.0002706,70.0012,64.739,270.9316,89.1533,8.727e-05,9.49e-06,0.0,0 STARLINK-5299,1 55277U 23010J   24220.53702896  .00000949  00000-0  87270-4 0  9992,2 55277  70.0012  64.7390 0002706 270.9316  89.1533 14.98335253 86039,6950.177,96.107,573.922,570.161,0.0
55277.0,STARLINK-5299,PAYLOAD,2024-08-07 20:53:59,14.98333863,0.0002595,69.9999,63.897,267.7073,92.3789,0.00014097,1.59e-05,0.0,0 STARLINK-5299,1 55277U 23010J   24220.87082898  .00001590  00000-0  14097-3 0  9991,2 55277  69.9999  63.8970 0002595 267.7073  92.3789 14.98333863 85778,6950.181,96.107,573.85,570.242,0.0
55277.0,STARLINK-5299,PAYLOAD,2024-08-08 20:56:00,14.98336308,0.0002855,69.9998,61.3716,265.854,94.2293,0.0001416,1.597e-05,0.0,0 STARLINK-5299,1 55277U 23010J   24221.87222626  .00001597  00000-0  14160-3 0  9995,2 55277  69.9998  61.3716 0002855 265.8540  94.2293 14.98336308 85920,6950.173,96.107,574.023,570.054,0.0
55277.0,STARLINK-5299,PAYLOAD,2024-08-08 22:32:08,14.98337746,0.0002778,70.0001,61.2039,262.5372,97.5471,0.00014344,1.619e-05,0.0,0 STARLINK-5299,1 55277U 23010J   24221.93898484  .00001619  00000-0  14344-3 0  9992,2 55277  70.0001  61.2039 0002778 262.5372  97.5471 14.98337746 86243,6950.169,96.107,573.965,570.103,0.0
55277.0,STARLINK-5299,PAYLOAD,2024-08-09 14:33:29,14.98331949,0.0002744,70.0002,59.5215,268.7507,91.3337,0.00011356,1.262e-05,0.0,0 STARLINK-5299,1 55277U 23010J   24222.60658844  .00001262  00000-0  11356-3 0  9995,2 55277  70.0002  59.5215 0002744 268.7507  91.3337 14.98331949 86344,6950.187,96.107,573.959,570.145,0.0
